start=new Date('2022-01-28T00:00:00.000Z').valueOf();
sats=[{"CENTER_NAME":"EARTH","TLE_LINE2":"2 46713  53.0512 144.8466 0001502  81.3281 278.7878 15.06404200 70728","CLASSIFICATION_TYPE":"U","LAUNCH_DATE":"2020-10-18","ECCENTRICITY":"0.00015020","REF_FRAME":"TEME","TIME_SYSTEM":"UTC","OBJECT_ID":"2020-073AV","OBJECT_TYPE":"PAYLOAD","NORAD_CAT_ID":"46713","MEAN_ANOMALY":"278.7878","ELEMENT_SET_NO":"999","SITE":"AFETR","ARG_OF_PERICENTER":"81.3281","COUNTRY_CODE":"US","TLE_LINE1":"1 46713U 20073AV  22027.58192768  .00002957  00000-0  21732-3 0  9993","PERIOD":"95.592","FILE":"3284946","EPHEMERIS_TYPE":"0","EPOCH":"2022-01-27T13:57:58.551552","DECAY_DATE":null,"RA_OF_ASC_NODE":"144.8466","MEAN_MOTION_DDOT":"0.0000000000000","MEAN_MOTION_DOT":"0.00002957","PERIAPSIS":"546.161","MEAN_MOTION":"15.06404200","MEAN_ELEMENT_THEORY":"SGP4","BSTAR":"0.00021732000000","INCLINATION":"53.0512","RCS_SIZE":"LARGE","REV_AT_EPOCH":"7072","GP_ID":"194742423","APOAPSIS":"548.241","OBJECT_NAME":"STARLINK-1815","SEMIMAJOR_AXIS":"6925.336"},{"TLE_LINE1":"1 46714U 20073AW  22027.70356478  .00000916  00000-0  80404-4 0  9993","PERIOD":"95.592","ELEMENT_SET_NO":"999","SITE":"AFETR","COUNTRY_CODE":"US","ARG_OF_PERICENTER":"80.9398","FILE":"3285201","EPHEMERIS_TYPE":"0","LAUNCH_DATE":"2020-10-18","CLASSIFICATION_TYPE":"U","ECCENTRICITY":"0.00015920","CENTER_NAME":"EARTH","TLE_LINE2":"2 46714  53.0556 144.3031 0001592  80.9398 279.1771 15.06400428 71224","OBJECT_TYPE":"PAYLOAD","NORAD_CAT_ID":"46714","MEAN_ANOMALY":"279.1771","REF_FRAME":"TEME","TIME_SYSTEM":"UTC","OBJECT_ID":"2020-073AW","RCS_SIZE":"LARGE","REV_AT_EPOCH":"7122","BSTAR":"0.00008040400000","INCLINATION":"53.0556","GP_ID":"194751450","APOAPSIS":"548.315","OBJECT_NAME":"STARLINK-1816","SEMIMAJOR_AXIS":"6925.347","DECAY_DATE":null,"MEAN_MOTION_DDOT":"0.0000000000000","RA_OF_ASC_NODE":"144.3031","EPOCH":"2022-01-27T16:53:07.996992","PERIAPSIS":"546.110","MEAN_MOTION":"15.06400428","MEAN_ELEMENT_THEORY":"SGP4","MEAN_MOTION_DOT":"0.00000916"},{"MEAN_MOTION_DOT":"0.00000800","MEAN_ELEMENT_THEORY":"SGP4","MEAN_MOTION":"15.06390330","PERIAPSIS":"546.124","EPOCH":"2022-01-27T13:36:46.142208","RA_OF_ASC_NODE":"144.9138","MEAN_MOTION_DDOT":"0.0000000000000","DECAY_DATE":null,"SEMIMAJOR_AXIS":"6925.378","OBJECT_NAME":"STARLINK-1817","APOAPSIS":"548.362","GP_ID":"194741422","INCLINATION":"53.0547","BSTAR":"0.00007258600000","REV_AT_EPOCH":"7072","RCS_SIZE":"LARGE","OBJECT_ID":"2020-073AX","TIME_SYSTEM":"UTC","REF_FRAME":"TEME","MEAN_ANOMALY":"285.6962","NORAD_CAT_ID":"46715","OBJECT_TYPE":"PAYLOAD","TLE_LINE2":"2 46715  53.0547 144.9138 0001616  74.4205 285.6962 15.06390330 70729","CENTER_NAME":"EARTH","CLASSIFICATION_TYPE":"U","LAUNCH_DATE":"2020-10-18","ECCENTRICITY":"0.00016160","EPHEMERIS_TYPE":"0","FILE":"3284946","COUNTRY_CODE":"US","ARG_OF_PERICENTER":"74.4205","SITE":"AFETR","ELEMENT_SET_NO":"999","TLE_LINE1":"1 46715U 20073AX  22027.56720072  .00000800  00000-0  72586-4 0  9997","PERIOD":"95.593"},{"MEAN_MOTION_DOT":"0.00001155","MEAN_ELEMENT_THEORY":"SGP4","PERIAPSIS":"545.944","MEAN_MOTION":"15.06401968","EPOCH":"2022-01-27T18:45:16.127424","RA_OF_ASC_NODE":"158.9601","MEAN_MOTION_DDOT":"0.0000000000000","DECAY_DATE":null,"OBJECT_NAME":"STARLINK-1818","APOAPSIS":"548.471","SEMIMAJOR_AXIS":"6925.343","GP_ID":"194754317","INCLINATION":"53.0549","BSTAR":"0.00009641200000","RCS_SIZE":"LARGE","REV_AT_EPOCH":"7102","TIME_SYSTEM":"UTC","OBJECT_ID":"2020-073AY","REF_FRAME":"TEME","NORAD_CAT_ID":"46716","MEAN_ANOMALY":"275.6272","OBJECT_TYPE":"PAYLOAD","TLE_LINE2":"2 46716  53.0549 158.9601 0001825  84.4925 275.6272 15.06401968 71021","CENTER_NAME":"EARTH","ECCENTRICITY":"0.00018250","LAUNCH_DATE":"2020-10-18","CLASSIFICATION_TYPE":"U","EPHEMERIS_TYPE":"0","FILE":"3285316","SITE":"AFETR","ARG_OF_PERICENTER":"84.4925","COUNTRY_CODE":"US","ELEMENT_SET_NO":"999","PERIOD":"95.592","TLE_LINE1":"1 46716U 20073AY  22027.78143666  .00001155  00000-0  96412-4 0  9998"},{"MEAN_ELEMENT_THEORY":"SGP4","MEAN_MOTION":"15.06389222","PERIAPSIS":"546.172","MEAN_MOTION_DOT":"0.00000778","RA_OF_ASC_NODE":"144.2247","MEAN_MOTION_DDOT":"0.0000000000000","DECAY_DATE":null,"EPOCH":"2022-01-27T17:14:22.609536","SEMIMAJOR_AXIS":"6925.382","APOAPSIS":"548.321","OBJECT_NAME":"STARLINK-1820","GP_ID":"194753985","REV_AT_EPOCH":"7122","RCS_SIZE":"LARGE","INCLINATION":"53.0549","BSTAR":"0.00007111900000","MEAN_ANOMALY":"276.1073","NORAD_CAT_ID":"46717","OBJECT_TYPE":"PAYLOAD","OBJECT_ID":"2020-073AZ","TIME_SYSTEM":"UTC","REF_FRAME":"TEME","LAUNCH_DATE":"2020-10-18","CLASSIFICATION_TYPE":"U","ECCENTRICITY":"0.00015520","TLE_LINE2":"2 46717  53.0549 144.2247 0001552  84.0093 276.1073 15.06389222 71220","CENTER_NAME":"EARTH","FILE":"3285316","EPHEMERIS_TYPE":"0","PERIOD":"95.593","TLE_LINE1":"1 46717U 20073AZ  22027.71831724  .00000778  00000-0  71119-4 0  9998","COUNTRY_CODE":"US","ARG_OF_PERICENTER":"84.0093","SITE":"AFETR","ELEMENT_SET_NO":"999"},{"EPHEMERIS_TYPE":"0","FILE":"3285316","COUNTRY_CODE":"US","ARG_OF_PERICENTER":"90.3629","SITE":"AFETR","ELEMENT_SET_NO":"999","TLE_LINE1":"1 46718U 20073BA  22027.62662201 -.00002598  00000-0 -15557-3 0  9998","PERIOD":"95.592","OBJECT_ID":"2020-073BA","TIME_SYSTEM":"UTC","REF_FRAME":"TEME","MEAN_ANOMALY":"269.7543","NORAD_CAT_ID":"46718","OBJECT_TYPE":"PAYLOAD","TLE_LINE2":"2 46718  53.0519 159.6458 0001600  90.3629 269.7543 15.06404370 71009","CENTER_NAME":"EARTH","LAUNCH_DATE":"2020-10-18","CLASSIFICATION_TYPE":"U","ECCENTRICITY":"0.00016000","SEMIMAJOR_AXIS":"6925.335","APOAPSIS":"548.308","OBJECT_NAME":"STARLINK-1821","GP_ID":"194753989","INCLINATION":"53.0519","BSTAR":"-0.00015557000000","REV_AT_EPOCH":"7100","RCS_SIZE":"LARGE","MEAN_MOTION_DOT":"-0.00002598","MEAN_ELEMENT_THEORY":"SGP4","MEAN_MOTION":"15.06404370","PERIAPSIS":"546.092","EPOCH":"2022-01-27T15:02:20.141664","MEAN_MOTION_DDOT":"0.0000000000000","RA_OF_ASC_NODE":"159.6458","DECAY_DATE":null},{"REF_FRAME":"TEME","OBJECT_ID":"2020-073BB","TIME_SYSTEM":"UTC","OBJECT_TYPE":"PAYLOAD","MEAN_ANOMALY":"279.5467","NORAD_CAT_ID":"46719","CENTER_NAME":"EARTH","TLE_LINE2":"2 46719  53.0559 125.0215 0001366  80.5676 279.5467 15.06390703 71002","ECCENTRICITY":"0.00013660","LAUNCH_DATE":"2020-10-18","CLASSIFICATION_TYPE":"U","EPHEMERIS_TYPE":"0","FILE":"3284946","ELEMENT_SET_NO":"999","COUNTRY_CODE":"US","ARG_OF_PERICENTER":"80.5676","SITE":"AFETR","PERIOD":"95.593","TLE_LINE1":"1 46719U 20073BB  22027.54324288 -.00001235  00000-0 -64070-4 0  9992","MEAN_MOTION_DOT":"-0.00001235","MEAN_MOTION":"15.06390703","PERIAPSIS":"546.296","MEAN_ELEMENT_THEORY":"SGP4","EPOCH":"2022-01-27T13:02:16.184832","DECAY_DATE":null,"RA_OF_ASC_NODE":"125.0215","MEAN_MOTION_DDOT":"0.0000000000000","GP_ID":"194740923","SEMIMAJOR_AXIS":"6925.377","OBJECT_NAME":"STARLINK-1822","APOAPSIS":"548.188","BSTAR":"-0.00006407000000","INCLINATION":"53.0559","REV_AT_EPOCH":"7100","RCS_SIZE":"LARGE"},{"ECCENTRICITY":"0.00018410","LAUNCH_DATE":"2020-10-18","CLASSIFICATION_TYPE":"U","TLE_LINE2":"2 46720  53.0536  89.1595 0001841 359.5447   0.5559 15.50761486 71972","CENTER_NAME":"EARTH","NORAD_CAT_ID":"46720","MEAN_ANOMALY":"0.5559","OBJECT_TYPE":"PAYLOAD","TIME_SYSTEM":"UTC","OBJECT_ID":"2020-073BC","REF_FRAME":"TEME","TLE_LINE1":"1 46720U 20073BC  22027.38561154  .00083183  00000-0  14133-2 0  9994","PERIOD":"92.858","SITE":"AFETR","ARG_OF_PERICENTER":"359.5447","COUNTRY_CODE":"US","ELEMENT_SET_NO":"999","FILE":"3285372","EPHEMERIS_TYPE":"0","MEAN_MOTION_DDOT":"0.0000000000000","RA_OF_ASC_NODE":"89.1595","DECAY_DATE":null,"EPOCH":"2022-01-27T09:15:16.837056","MEAN_ELEMENT_THEORY":"SGP4","PERIAPSIS":"413.253","MEAN_MOTION":"15.50761486","MEAN_MOTION_DOT":"0.00083183","RCS_SIZE":"LARGE","REV_AT_EPOCH":"7197","INCLINATION":"53.0536","BSTAR":"0.00141330000000","APOAPSIS":"415.754","OBJECT_NAME":"STARLINK-1823","SEMIMAJOR_AXIS":"6792.639","GP_ID":"194755357"},{"MEAN_MOTION_DOT":"0.00000959","MEAN_ELEMENT_THEORY":"SGP4","MEAN_MOTION":"15.06402265","PERIAPSIS":"546.042","EPOCH":"2022-01-27T14:03:56.801376","RA_OF_ASC_NODE":"159.8203","MEAN_MOTION_DDOT":"0.0000000000000","DECAY_DATE":null,"SEMIMAJOR_AXIS":"6925.342","OBJECT_NAME":"STARLINK-1825","APOAPSIS":"548.371","GP_ID":"194742424","INCLINATION":"53.0549","BSTAR":"0.00008327500000","REV_AT_EPOCH":"7051","RCS_SIZE":"LARGE","OBJECT_ID":"2020-073BE","TIME_SYSTEM":"UTC","REF_FRAME":"TEME","MEAN_ANOMALY":"279.0518","NORAD_CAT_ID":"46722","OBJECT_TYPE":"PAYLOAD","TLE_LINE2":"2 46722  53.0549 159.8203 0001681  81.0661 279.0518 15.06402265 70511","CENTER_NAME":"EARTH","LAUNCH_DATE":"2020-10-18","CLASSIFICATION_TYPE":"U","ECCENTRICITY":"0.00016810","FILE":"3284946","EPHEMERIS_TYPE":"0","COUNTRY_CODE":"US","ARG_OF_PERICENTER":"81.0661","SITE":"AFETR","ELEMENT_SET_NO":"999","TLE_LINE1":"1 46722U 20073BE  22027.58607409  .00000959  00000-0  83275-4 0  9997","PERIOD":"95.592"},{"LAUNCH_DATE":"2020-10-18","CLASSIFICATION_TYPE":"U","ECCENTRICITY":"0.00013580","CENTER_NAME":"EARTH","TLE_LINE2":"2 46723  53.0552 119.4243 0001358  64.5674 295.5455 15.06395822 71573","OBJECT_TYPE":"PAYLOAD","NORAD_CAT_ID":"46723","MEAN_ANOMALY":"295.5455","REF_FRAME":"TEME","TIME_SYSTEM":"UTC","OBJECT_ID":"2020-073BF","TLE_LINE1":"1 46723U 20073BF  22027.67822327 -.00000501  00000-0 -14761-4 0  9995","PERIOD":"95.592","ELEMENT_SET_NO":"999","SITE":"AFETR","COUNTRY_CODE":"US","ARG_OF_PERICENTER":"64.5674","FILE":"3285202","EPHEMERIS_TYPE":"0","DECAY_DATE":null,"MEAN_MOTION_DDOT":"0.0000000000000","RA_OF_ASC_NODE":"119.4243","EPOCH":"2022-01-27T16:16:38.490528","PERIAPSIS":"546.286","MEAN_MOTION":"15.06395822","MEAN_ELEMENT_THEORY":"SGP4","MEAN_MOTION_DOT":"-0.00000501","RCS_SIZE":"LARGE","REV_AT_EPOCH":"7157","BSTAR":"-0.00001476100000","INCLINATION":"53.0552","GP_ID":"194750959","OBJECT_NAME":"STARLINK-1826","APOAPSIS":"548.167","SEMIMAJOR_AXIS":"6925.361"}];
